OBJECT_NAME,OBJECT_ID,EPOCH,MEAN_MOTION,ECCENTRICITY,INCLINATION,RA_OF_ASC_NODE,ARG_OF_PERICENTER,MEAN_ANOMALY,EPHEMERIS_TYPE,CLASSIFICATION_TYPE,NORAD_CAT_ID,ELEMENT_SET_NO,REV_AT_EPOCH,BSTAR,MEAN_MOTION_DOT,MEAN_MOTION_DDOT
SKYNET 4C,1990-079A,2026-06-11T04:50:51.491040,1.00274124,.0002401,13.3423,349.8525,96.2300,279.5546,0,U,20776,999,13083,0,.132E-5,0
TDRS 5,1991-054B,2026-06-13T17:29:22.717824,1.00272741,.0006413,14.0717,353.8044,274.5651,88.3161,0,U,21639,999,12768,0,.84E-6,0
TDRS 6,1993-003B,2026-06-13T09:30:50.212800,1.00272769,.00077328,14.1828,357.0888,178.0180,183.5105,0,U,22314,999,12237,0,-.295E-5,0
UFO 2 (USA 95),1993-056A,2026-06-13T20:00:38.801952,1.00275128,.000602,11.8937,3.5752,7.7475,219.6242,0,U,22787,999,11851,0,.125E-5,0
USA 99 (MILSTAR-1 1),1994-009A,2026-06-13T20:02:33.357120,0.98722191,.0001122,17.6218,27.7409,215.0934,343.6443,0,U,22988,999,3291,0,-.101E-5,0
UFO 4 (USA 108),1995-003A,2026-06-13T19:06:18.565344,1.00272040,.0003165,9.6988,13.2436,62.8852,284.7222,0,U,23467,999,11491,0,-.21E-6,0
USA 115 (MILSTAR-1 2),1995-060A,2026-06-13T12:41:57.702048,1.00364783,.0001561,14.0716,3.7757,143.1588,209.9631,0,U,23712,999,3284,0,-.185E-5,0
INMARSAT 3-F1,1996-020A,2026-06-13T08:46:19.212096,0.99979221,.00037297,10.5935,46.6712,45.4436,210.0122,0,U,23839,999,11021,0,-.14E-5,0
INMARSAT 3-F2,1996-053A,2026-06-13T12:09:50.053248,1.00003798,.0006753,9.8492,53.9754,26.7081,156.5264,0,U,24307,999,10888,0,-.229E-5,0
INMARSAT 3-F3,1996-070A,2026-06-13T19:20:38.571072,0.99980849,.0003436,10.3113,49.6870,21.5651,167.0726,0,U,24674,999,10787,0,.134E-5,0
AMC-3,1997-050A,2026-06-13T10:04:05.843712,0.99060908,.0004044,8.1549,64.0259,26.0063,208.7908,0,U,24936,999,5239,0,.62E-6,0
USA 134,1997-065A,2026-06-13T14:21:09.729792,1.00269238,.0003316,12.7798,21.7493,335.7977,7.4101,0,U,25019,999,3291,0,-.63E-6,0
INMARSAT 3-F5,1998-006B,2026-06-13T02:58:38.981856,1.00269237,.00044298,9.6840,53.2993,25.6664,173.1600,0,U,25153,999,10385,0,-.287E-5,0
ASIASTAR,2000-016A,2026-06-13T16:38:38.685984,1.00270425,.0004388,9.1213,58.1903,25.3553,173.1405,0,U,26107,999,9588,0,-.331E-5,0
USA 149 (DSP 20),2000-024A,2026-06-13T19:12:32.965056,1.00273213,.0001841,13.1680,11.8764,305.0381,67.9257,0,U,26356,999,3288,0,.93E-6,0
TDRS 8,2000-034A,2026-06-13T16:11:00.663072,1.00267848,.000476,12.6783,31.3532,15.9646,182.0814,0,U,26388,999,9514,0,-.193E-5,0
USA 153,2000-065A,2026-06-13T12:04:50.532096,1.00270264,.00030477,11.6183,35.4527,47.2042,134.8775,0,U,26575,999,3289,0,-.323E-5,0
AMC-6,2000-067A,2026-06-13T17:38:36.832992,1.00272139,.0003438,0.1435,83.0732,11.1246,297.4629,0,U,26580,999,9385,0,.99E-6,0
USA 157 (MILSTAR-2 2),2001-009A,2026-06-13T17:34:22.239840,1.00273074,.0039356,11.5389,19.7856,177.5877,178.1839,0,U,26715,999,3290,0,.11E-5,0
INTELSAT 902 (IS-902),2001-039A,2026-06-13T16:20:10.472064,1.00271249,.0004504,6.1088,71.8271,6.9820,18.1229,0,U,26900,999,9066,0,-.277E-5,0
USA 164 (MILSTAR-2 3),2002-001A,2026-06-13T17:47:36.902976,1.00276159,.0098959,11.1754,21.9281,8.3054,157.7242,0,U,27168,999,3292,0,.99E-6,0
INTELSAT 904 (IS-904),2002-007A,2026-06-13T01:12:23.771232,1.00271515,.00065047,6.9094,69.2332,3.3250,175.4234,0,U,27380,999,5172,0,-.218E-5,0
INTELSAT 905 (IS-905),2002-027A,2026-06-13T11:14:26.678976,1.00271998,.00038085,6.7440,69.8438,20.0607,203.2730,0,U,27438,999,5132,0,.1E-5,0
